{"type": "FeatureCollection", "features": [ {"type": "Feature", "properties": {"norad_id": 66800, "name": "STARLINK-35996", "group": "last-30-days", "lat": 40.33169362958889, "lon": -102.14031697130368, "alt_km": 402.7609951366121, "timestamp": "2025-12-22T15:43:47.685515+00:00", "meta": {"OBJECT_NAME": "STARLINK-35996", "OBJECT_ID": "2025-278K", "EPOCH": "2025-12-22T06:00:02.000160", "MEAN_MOTION": 15.54776735, "ECCENTRICITY": 0.00015149, "INCLINATION": 42.9992, "RA_OF_ASC_NODE": 194.5807, "ARG_OF_PERICENTER": 262.0719, "MEAN_ANOMALY": 59.1984, "EPHEMERIS_TYPE": 0, "CLASSIFICATION_TYPE": "U", "NORAD_CAT_ID": 66800, "ELEMENT_SET_NO": 999, "REV_AT_EPOCH": 427, "BSTAR": -0.033801621, "MEAN_MOTION_DOT": -0.02057919, "MEAN_MOTION_DDOT": 0}, "tle": {"line1": "1 66800U 25278K   25356.25002315 -.02057919  00000+0 -33802-1 0  9994", "line2": "2 66800  42.9992 194.5807 0001514 262.0719  59.1984 15.54776735  4278"}}, "geometry": {"type": "Point", "coordinates": [-102.14031697130368, 40.33169362958889]}}, {"type": "Feature", "properties": {"norad_id": 66801, "name": "STARLINK-36080", "group": "last-30-days", "lat": 42.365509356085866, "lon": -89.66205041010757, "alt_km": 402.48387180235295, "timestamp": "2025-12-22T15:43:47.685524+00:00", "meta": {"OBJECT_NAME": "STARLINK-36080", "OBJECT_ID": "2025-278L", "EPOCH": "2025-12-22T06:00:02.000160", "MEAN_MOTION": 15.54777291, "ECCENTRICITY": 0.00015168, "INCLINATION": 42.9994, "RA_OF_ASC_NODE": 194.5554, "ARG_OF_PERICENTER": 260.8804, "MEAN_ANOMALY": 69.9759, "EPHEMERIS_TYPE": 0, "CLASSIFICATION_TYPE": "U", "NORAD_CAT_ID": 66801, "ELEMENT_SET_NO": 999, "REV_AT_EPOCH": 448, "BSTAR": -0.033827422, "MEAN_MOTION_DOT": -0.02059359, "MEAN_MOTION_DDOT": 0}, "tle": {"line1": "1 66801U 25278L   25356.25002315 -.02059359  00000+0 -33827-1 0  9992", "line2": "2 66801  42.9994 194.5554 0001516 260.8804  69.9759 15.54777291  4483"}}, "geometry": {"type": "Point", "coordinates": [-89.66205041010757, 42.365509356085866]}}, {"type": "Feature", "properties": {"norad_id": 66802, "name": "STARLINK-35604", "group": "last-30-days", "lat": 39.767343210306954, "lon": -104.53513089941052, "alt_km": 402.9143361165252, "timestamp": "2025-12-22T15:43:47.685534+00:00", "meta": {"OBJECT_NAME": "STARLINK-35604", "OBJECT_ID": "2025-278M", "EPOCH": "2025-12-22T06:00:02.000160", "MEAN_MOTION": 15.54776418, "ECCENTRICITY": 0.00015966, "INCLINATION": 42.9995, "RA_OF_ASC_NODE": 194.5849, "ARG_OF_PERICENTER": 258.3065, "MEAN_ANOMALY": 61.0456, "EPHEMERIS_TYPE": 0, "CLASSIFICATION_TYPE": "U", "NORAD_CAT_ID": 66802, "ELEMENT_SET_NO": 999, "REV_AT_EPOCH": 448, "BSTAR": -0.03378024, "MEAN_MOTION_DOT": -0.02056789, "MEAN_MOTION_DDOT": 0}, "tle": {"line1": "1 66802U 25278M   25356.25002315 -.02056789  00000+0 -33780-1 0  9995", "line2": "2 66802  42.9995 194.5849 0001596 258.3065  61.0456 15.54776418  4488"}}, "geometry": {"type": "Point", "coordinates": [-104.53513089941052, 39.767343210306954]}}, {"type": "Feature", "properties": {"norad_id": 66803, "name": "STARLINK-35565", "group": "last-30-days", "lat": 40.845520641829445, "lon": -99.71050018236372, "alt_km": 402.69704742664453, "timestamp": "2025-12-22T15:43:47.685545+00:00", "meta": {"OBJECT_NAME": "STARLINK-35565", "OBJECT_ID": "2025-278N", "EPOCH": "2025-12-22T06:00:02.000160", "MEAN_MOTION": 15.54776503, "ECCENTRICITY": 0.00015216, "INCLINATION": 42.9992, "RA_OF_ASC_NODE": 194.5751, "ARG_OF_PERICENTER": 262.1422, "MEAN_ANOMALY": 61.0463, "EPHEMERIS_TYPE": 0, "CLASSIFICATION_TYPE": "U", "NORAD_CAT_ID": 66803, "ELEMENT_SET_NO": 999, "REV_AT_EPOCH": 457, "BSTAR": -0.033810597, "MEAN_MOTION_DOT": -0.02058395, "MEAN_MOTION_DDOT": 0}, "tle": {"line1": "1 66803U 25278N   25356.25002315 -.02058395  00000+0 -33811-1 0  9996", "line2": "2 66803  42.9992 194.5751 0001521 262.1422  61.0463 15.54776503  4579"}}, "geometry": {"type": "Point", "coordinates": [-99.71050018236372, 40.845520641829445]}}, {"type": "Feature", "properties": {"norad_id": 66804, "name": "STARLINK-36038", "group": "last-30-days", "lat": 41.306690957609234, "lon": -97.24858946436088, "alt_km": 402.7291115359649, "timestamp": "2025-12-22T15:43:47.685555+00:00", "meta": {"OBJECT_NAME": "STARLINK-36038", "OBJECT_ID": "2025-278P", "EPOCH": "2025-12-22T06:00:02.000160", "MEAN_MOTION": 15.54780081, "ECCENTRICITY": 0.00016279, "INCLINATION": 42.9995, "RA_OF_ASC_NODE": 194.571, "ARG_OF_PERICENTER": 257.0614, "MEAN_ANOMALY": 68.0417, "EPHEMERIS_TYPE": 0, "CLASSIFICATION_TYPE": "U", "NORAD_CAT_ID": 66804, "ELEMENT_SET_NO": 999, "REV_AT_EPOCH": 448, "BSTAR": -0.033917511, "MEAN_MOTION_DOT": -0.02064512, "MEAN_MOTION_DDOT": 0}, "tle": {"line1": "1 66804U 25278P   25356.25002315 -.02064512  00000+0 -33918-1 0  9993", "line2": "2 66804  42.9995 194.5710 0001627 257.0614  68.0417 15.54780081  4483"}}, "geometry": {"type": "Point", "coordinates": [-97.24858946436088, 41.306690957609234]}}, {"type": "Feature", "properties": {"norad_id": 66805, "name": "STARLINK-36049", "group": "last-30-days", "lat": 42.068222952620744, "lon": -92.22074561733962, "alt_km": 402.65584436369954, "timestamp": "2025-12-22T15:43:47.685567+00:00", "meta": {"OBJECT_NAME": "STARLINK-36049", "OBJECT_ID": "2025-278Q", "EPOCH": "2025-12-22T06:00:02.000160", "MEAN_MOTION": 15.5477343, "ECCENTRICITY": 0.00016972, "INCLINATION": 42.9994, "RA_OF_ASC_NODE": 194.5602, "ARG_OF_PERICENTER": 258.7181, "MEAN_ANOMALY": 70.2222, "EPHEMERIS_TYPE": 0, "CLASSIFICATION_TYPE": "U", "NORAD_CAT_ID": 66805, "ELEMENT_SET_NO": 999, "REV_AT_EPOCH": 448, "BSTAR": -0.033757507, "MEAN_MOTION_DOT": -0.02055417, "MEAN_MOTION_DDOT": 0}, "tle": {"line1": "1 66805U 25278Q   25356.25002315 -.02055417  00000+0 -33758-1 0  9990", "line2": "2 66805  42.9994 194.5602 0001697 258.7181  70.2222 15.54773430  4486"}}, "geometry": {"type": "Point", "coordinates": [-92.22074561733962, 42.068222952620744]}}, {"type": "Feature", "properties": {"norad_id": 66806, "name": "STARLINK-36069", "group": "last-30-days", "lat": 41.71567693796765, "lon": -94.74547660858292, "alt_km": 402.65890393641166, "timestamp": "2025-12-22T15:43:47.685579+00:00", "meta": {"OBJECT_NAME": "STARLINK-36069", "OBJECT_ID": "2025-278R", "EPOCH": "2025-12-22T06:00:02.000160", "MEAN_MOTION": 15.54775659, "ECCENTRICITY": 0.00016438, "INCLINATION": 42.9995, "RA_OF_ASC_NODE": 194.5654, "ARG_OF_PERICENTER": 263.2904, "MEAN_ANOMALY": 63.7325, "EPHEMERIS_TYPE": 0, "CLASSIFICATION_TYPE": "U", "NORAD_CAT_ID": 66806, "ELEMENT_SET_NO": 999, "REV_AT_EPOCH": 427, "BSTAR": -0.033806843, "MEAN_MOTION_DOT": -0.02058213, "MEAN_MOTION_DDOT": 0}, "tle": {"line1": "1 66806U 25278R   25356.25002315 -.02058213  00000+0 -33807-1 0  9993", "line2": "2 66806  42.9995 194.5654 0001643 263.2904  63.7325 15.54775659  4273"}}, "geometry": {"type": "Point", "coordinates": [-94.74547660858292, 41.71567693796765]}}, {"type": "Feature", "properties": {"norad_id": 66807, "name": "STARLINK-36000", "group": "last-30-days", "lat": 42.604627262084726, "lon": -87.08823731013952, "alt_km": 402.531078892569, "timestamp": "2025-12-22T15:43:47.685589+00:00", "meta": {"OBJECT_NAME": "STARLINK-36000", "OBJECT_ID": "2025-278S", "EPOCH": "2025-12-22T06:00:02.000160", "MEAN_MOTION": 15.54778299, "ECCENTRICITY": 0.00016462, "INCLINATION": 42.9995, "RA_OF_ASC_NODE": 194.5518, "ARG_OF_PERICENTER": 256.2469, "MEAN_ANOMALY": 76.5242, "EPHEMERIS_TYPE": 0, "CLASSIFICATION_TYPE": "U", "NORAD_CAT_ID": 66807, "ELEMENT_SET_NO": 999, "REV_AT_EPOCH": 454, "BSTAR": -0.033837219, "MEAN_MOTION_DOT": -0.02060044, "MEAN_MOTION_DDOT": 0}, "tle": {"line1": "1 66807U 25278S   25356.25002315 -.02060044  00000+0 -33837-1 0  9992", "line2": "2 66807  42.9995 194.5518 0001646 256.2469  76.5242 15.54778299  4547"}}, "geometry": {"type": "Point", "coordinates": [-87.08823731013952, 42.604627262084726]}}, {"type": "Feature", "properties": {"norad_id": 66808, "name": "STARLINK-36071", "group": "last-30-days", "lat": 42.785622952249135, "lon": -84.49192414164077, "alt_km": 402.5369009881415, "timestamp": "2025-12-22T15:43:47.685599+00:00", "meta": {"OBJECT_NAME": "STARLINK-36071", "OBJECT_ID": "2025-278T", "EPOCH": "2025-12-22T06:00:02.000160", "MEAN_MOTION": 15.54782075, "ECCENTRICITY": 0.00016788, "INCLINATION": 42.9993, "RA_OF_ASC_NODE": 194.5472, "ARG_OF_PERICENTER": 259.1756, "MEAN_ANOMALY": 75.5117, "EPHEMERIS_TYPE": 0, "CLASSIFICATION_TYPE": "U", "NORAD_CAT_ID": 66808, "ELEMENT_SET_NO": 999, "REV_AT_EPOCH": 448, "BSTAR": -0.033958076, "MEAN_MOTION_DOT": -0.02066883, "MEAN_MOTION_DDOT": 0}, "tle": {"line1": "1 66808U 25278T   25356.25002315 -.02066883  00000+0 -33958-1 0  9994", "line2": "2 66808  42.9993 194.5472 0001678 259.1756  75.5117 15.54782075  4481"}}, "geometry": {"type": "Point", "coordinates": [-84.49192414164077, 42.785622952249135]}}, {"type": "Feature", "properties": {"norad_id": 66809, "name": "STARLINK-35979", "group": "last-30-days", "lat": 42.97277870025985, "lon": -76.65525430347326, "alt_km": 402.47785751373067, "timestamp": "2025-12-22T15:43:47.685609+00:00", "meta": {"OBJECT_NAME": "STARLINK-35979", "OBJECT_ID": "2025-278U", "EPOCH": "2025-12-22T06:00:02.000160", "MEAN_MOTION": 15.54776822, "ECCENTRICITY": 0.00016887, "INCLINATION": 42.9995, "RA_OF_ASC_NODE": 194.5313, "ARG_OF_PERICENTER": 256.5946, "MEAN_ANOMALY": 83.846, "EPHEMERIS_TYPE": 0, "CLASSIFICATION_TYPE": "U", "NORAD_CAT_ID": 66809, "ELEMENT_SET_NO": 999, "REV_AT_EPOCH": 448, "BSTAR": -0.033831456, "MEAN_MOTION_DOT": -0.02059659, "MEAN_MOTION_DDOT": 0}, "tle": {"line1": "1 66809U 25278U   25356.25002315 -.02059659  00000+0 -33831-1 0  9998", "line2": "2 66809  42.9995 194.5313 0001688 256.5946  83.8460 15.54776822  4487"}}, "geometry": {"type": "Point", "coordinates": [-76.65525430347326, 42.97277870025985]}}]}